STARLINK-1522
1 46027U 20055A   26090.26573542  .00030438  00000+0  18584-2 0  9997
2 46027  53.0651  29.1703 0002458 107.1040 253.0220 15.10072505312146
STARLINK-1536
1 46070U 20055AV  26090.91671296 -.00025850  00000+0 -15516-2 0  9998
2 46070  53.0570 356.7562 0001544  91.9536 348.1435 15.10219552  5835
STARLINK-1549
1 46074U 20055AZ  26090.88160558  .00100312  00000+0  60410-2 0  9990
2 46074  53.0538 356.9303 0001555  77.3240 282.7925 15.09973747312648
STARLINK-1578
1 46082U 20055BH  26090.91671296 -.00017400  00000+0 -10380-2 0  9997
2 46082  53.0537 356.7645 0001453  92.4643   2.5710 15.10198688  5830
STARLINK-2088
1 47371U 21005Y   26090.83335647 -.00017788  00000+0 -10617-2 0  9995
2 47371  53.0737 321.9537 0001514  85.3004 295.6029 15.10194107  5726
STARLINK-2111
1 47390U 21005AT  26090.83335647 -.00010960  00000+0 -64676-3 0  9996
2 47390  53.0913 321.8996 0001309  90.6853 222.7790 15.10195167  5727
STARLINK-2423
1 47833U 21018AY  26090.83335647 -.00032907  00000+0 -19823-2 0  9990
2 47833  53.0775 152.0534 0000856  92.3864 109.4124 15.10213959  5827
